      2.10          N: GNSS NAV DATA                        RINEX VERSION / TYPE
fic2rin                                 09/27/2022 00:17:44 PGM / RUN BY / DATE
                                                            END OF HEADER
25 22  9 26 21 59 44.0  .376251060516D-03  .397903932026D-11  .000000000000D+00
     .290000000000D+02  .555625000000D+02  .522700343996D-08  .969194316434D-01
     .296719372272D-05  .105656955857D-01  .293552875519D-05  .515360940742D+04
     .165584000000D+06 -.298023223877D-07 -.175062525227D+01  .128522515297D-06
     .955079285514D+00  .318375000000D+03  .100276606711D+01 -.881822445730D-08
     .135005623526D-09  .100000000000D+01  .222900000000D+04  .000000000000D+00
     .240000000000D+01  .000000000000D+00  .558793544769D-08  .290000000000D+02
     .158400000000D+06  .400000000000D+01
3  22  9 26 22  0  0.0 -.357022043318D-03 -.534328137292D-11  .000000000000D+00
     .250000000000D+02  .444062500000D+02  .459697719684D-08  .508849427301D+00
     .208057463169D-05  .450852874201D-02  .455416738987D-05  .515353859329D+04
     .165600000000D+06 -.745058059692D-07  .139965759699D+01  .167638063431D-07
     .975079992818D+00  .300218750000D+03  .106411625340D+01 -.830856037060D-08
     .379658671450D-09  .100000000000D+01  .222900000000D+04  .000000000000D+00
     .240000000000D+01  .000000000000D+00  .186264514923D-08  .250000000000D+02
     .158400000000D+06  .400000000000D+01
2  22  9 26 22  0  0.0 -.644634012133D-03  .136424205266D-11  .000000000000D+00
     .790000000000D+02  .937500000000D-01  .401052419729D-08  .111247624356D+01
    -.184401869774D-06  .199969218811D-01  .124461948872D-04  .515490119362D+04
     .165600000000D+06 -.145286321640D-06  .273130579728D+00 -.465661287308D-06
     .966846748385D+00  .145937500000D+03 -.139278587432D+01 -.796890336538D-08
     .186436337250D-09  .100000000000D+01  .222900000000D+04  .000000000000D+00
     .240000000000D+01  .000000000000D+00 -.172294676304D-07  .790000000000D+02
     .158400000000D+06  .400000000000D+01
1  22  9 26 22  0  0.0  .277191866189D-03 -.636646291241D-11  .000000000000D+00
     .680000000000D+02  .115937500000D+02  .347871633107D-08  .161255841598D+01
     .581145286560D-06  .119972251123D-01  .134389847517D-04  .515366620064D+04
     .165600000000D+06 -.230967998505D-06  .366928233428D+00 -.521540641785D-07
     .988892621016D+00  .136156250000D+03  .943277015434D+00 -.761817447040D-08
     .250367571671D-09  .100000000000D+01  .222900000000D+04  .000000000000D+00
     .240000000000D+01  .000000000000D+00  .512227416039D-08  .680000000000D+02
     .158400000000D+06  .400000000000D+01
10 22  9 26 22  0  0.0 -.498816370964D-05 -.159161572810D-11  .000000000000D+00
     .140000000000D+02  .400625000000D+02  .466269421993D-08 -.378099516220D+00
     .223144888878D-05  .794475828297D-02  .403635203838D-05  .515367559433D+04
     .165600000000D+06  .763684511185D-07  .139695230158D+01  .106170773506D-06
     .974862970384D+00  .309281250000D+03 -.251205083458D+01 -.842070789914D-08
     .385373195198D-09  .100000000000D+01  .222900000000D+04  .000000000000D+00
     .240000000000D+01  .000000000000D+00  .232830643654D-08  .140000000000D+02
     .158400000000D+06  .400000000000D+01
7  22  9 26 22  0  0.0  .304229557514D-03 -.329691829393D-11  .000000000000D+00
     .900000000000D+01  .399687500000D+02  .465090801470D-08  .982535473929D+00
     .232458114624D-05  .163982369704D-01  .133197754622D-04  .515364678764D+04
     .165600000000D+06 -.156462192535D-06 -.278517896684D+01  .154599547386D-06
     .951078936027D+00  .121031250000D+03 -.224140801287D+01 -.832106089130D-08
     .350014579512D-10  .100000000000D+01  .222900000000D+04  .000000000000D+00
     .240000000000D+01  .000000000000D+00 -.111758708954D-07  .900000000000D+01
     .158400000000D+06  .400000000000D+01
5  22  9 26 22  0  0.0 -.981609337032D-04 -.147792889038D-11  .000000000000D+00
     .118000000000D+03  .504062500000D+02  .478341353409D-08 -.215745491132D+01
     .248663127422D-05  .609315477777D-02  .401586294174D-05  .515378667450D+04
     .165600000000D+06  .596046447754D-07  .135629028437D+01  .167638063431D-07
     .962117066941D+00  .296656250000D+03  .111737434345D+01 -.832391815317D-08
     .460733477113D-09  .100000000000D+01  .222900000000D+04  .000000000000D+00
     .240000000000D+01  .000000000000D+00 -.111758708954D-07  .118000000000D+03
     .158400000000D+06  .400000000000D+01
12 22  9 26 22  0  0.0 -.284631270915D-03 -.602540239925D-11  .000000000000D+00
     .330000000000D+02  .444687500000D+02  .488377485740D-08  .276361858552D+00
     .229850411415D-05  .850742496550D-02  .314041972160D-05  .515373209953D+04
     .165600000000D+06 -.651925802231D-07 -.167113004246D+01  .614672899246D-07
     .967494469994D+00  .321968750000D+03  .131590393798D+01 -.863643117060D-08
     .867893294096D-10  .100000000000D+01  .222900000000D+04  .000000000000D+00
     .240000000000D+01  .000000000000D+00 -.125728547573D-07  .330000000000D+02
     .158400000000D+06  .400000000000D+01
15 22  9 26 22  0  0.0 -.257538631558D-04  .306954461848D-11  .000000000000D+00
     .180000000000D+02 -.835937500000D+02  .541165398854D-08  .288202929609D+01
    -.446103513241D-05  .146169299260D-01  .611878931522D-05  .515362215424D+04
     .165600000000D+06  .521540641785D-07  .231482478344D+01 -.229105353355D-06
     .930980096178D+00  .246125000000D+03  .113803834805D+01 -.837677749783D-08
    -.427160650099D-09  .100000000000D+01  .222900000000D+04  .000000000000D+00
     .240000000000D+01  .000000000000D+00 -.107102096081D-07  .180000000000D+02
     .158400000000D+06  .400000000000D+01
9  22  9 26 22  0  0.0 -.291019678116D-03  .488853402203D-11  .000000000000D+00
     .410000000000D+02 -.770625000000D+02  .495734935064D-08 -.199770231870D+01
    -.380538403988D-05  .252144772094D-02  .729970633984D-05  .515375057411D+04
     .165600000000D+06  .316649675369D-07  .242677299341D+01  .279396772385D-07
     .955029214217D+00  .237750000000D+03  .190452483547D+01 -.832106089130D-08
    -.428946438769D-09  .100000000000D+01  .222900000000D+04  .000000000000D+00
     .240000000000D+01  .000000000000D+00  .139698386192D-08  .410000000000D+02
     .158400000000D+06  .400000000000D+01
6  22  9 26 22  0  0.0  .473551917821D-03  .118234311230D-10  .000000000000D+00
     .900000000000D+02  .853125000000D+01  .348157359294D-08  .182842194104D+01
     .581145286560D-06  .245210051071D-02  .127218663692D-04  .515353016663D+04
     .165600000000D+06  .502914190292D-07  .358659211870D+00  .409781932831D-07
     .988198324484D+00  .146812500000D+03 -.895869860393D+00 -.745638201681D-08
     .268582616115D-09  .100000000000D+01  .222900000000D+04  .000000000000D+00
     .240000000000D+01  .000000000000D+00  .372529029846D-08  .900000000000D+02
     .158400000000D+06  .400000000000D+01
4  22  9 26 22  0  0.0 -.112758018076D-03  .579802872380D-11  .000000000000D+00
     .117000000000D+03 -.797812500000D+02  .473305429357D-08 -.276136621540D+01
    -.401213765144D-05  .202760589309D-02  .844895839691D-05  .515374858856D+04
     .165600000000D+06  .353902578354D-07  .248151365438D+01 -.186264514923D-07
     .961954958062D+00  .221156250000D+03 -.309941813123D+01 -.815498254490D-08
    -.451447376024D-09  .100000000000D+01  .222900000000D+04  .000000000000D+00
     .240000000000D+01  .000000000000D+00 -.465661287308D-08  .629000000000D+03
     .158400000000D+06  .400000000000D+01
27 22  9 26 22  0  0.0  .206734053791D-03 -.500222085975D-11  .000000000000D+00
     .100000000000D+02 -.987500000000D+02  .429910764652D-08 -.241703889597D+01
    -.502727925777D-05  .106160438154D-01  .756606459618D-05  .515366014862D+04
     .165600000000D+06  .875443220139D-07 -.696244091098D+00 -.726431608200D-07
     .970804181708D+00  .237125000000D+03  .687170071072D+00 -.798854704076D-08
    -.500735143343D-09  .100000000000D+01  .222900000000D+04  .000000000000D+00
     .240000000000D+01  .000000000000D+00  .139698386192D-08  .100000000000D+02
     .158400000000D+06  .400000000000D+01
16 22  9 26 22  0  0.0 -.525116920471D-03 -.909494701773D-12  .000000000000D+00
     .590000000000D+02  .374687500000D+02  .482984403953D-08 -.150560703092D+01
     .202842056751D-05  .127996158553D-01  .262632966042D-05  .515370985413D+04
     .165600000000D+06  .245869159698D-06 -.165265906471D+01 -.117346644402D-06
     .967318368304D+00  .330656250000D+03  .732596361888D+00 -.838249202158D-08
     .188936441390D-09  .100000000000D+01  .222900000000D+04  .000000000000D+00
     .240000000000D+01  .000000000000D+00 -.102445483208D-07  .590000000000D+02
     .158400000000D+06  .400000000000D+01
21 22  9 26 22  0  0.0  .158911105245D-03 -.568434188608D-12  .000000000000D+00
     .330000000000D+02  .207500000000D+02  .396123642997D-08 -.240667775087D+01
     .131316483021D-05  .243516849587D-01  .142399221659D-04  .515370626259D+04
     .165600000000D+06 -.186264514923D-08  .270026527963D+00  .452622771263D-06
     .961161224063D+00  .986562500000D+02 -.890110607925D+00 -.748138305821D-08
     .194650965137D-09  .100000000000D+01  .222900000000D+04  .000000000000D+00
     .240000000000D+01  .000000000000D+00 -.102445483208D-07  .330000000000D+02
     .158400000000D+06  .400000000000D+01
31 22  9 26 22  0  0.0 -.194755848497D-03 -.136424205266D-11  .000000000000D+00
     .680000000000D+02  .626250000000D+02  .451947396852D-08  .451319221474D+00
     .341609120369D-05  .105618315283D-01  .122208148241D-04  .515359686089D+04
     .165600000000D+06  .596046447754D-07 -.276618852443D+01  .167638063431D-06
     .955233869142D+00  .139406250000D+03  .431686070875D+00 -.811069498586D-08
     .122147945095D-09  .100000000000D+01  .222900000000D+04  .000000000000D+00
     .240000000000D+01  .000000000000D+00 -.135041773319D-07  .680000000000D+02
     .158400000000D+06  .400000000000D+01
